{"type": "FeatureCollection", "features": [ {"type": "Feature", "properties": {"norad_id": 40799, "name": "COSMOS 2251 DEB", "group": "cosmos-2251-debris", "lat": 52.46805880376213, "lon": -121.31270521730089, "alt_km": 651.2242649661457, "timestamp": "2025-12-21T09:37:23.053314+00:00", "meta": {"OBJECT_NAME": "COSMOS 2251 DEB", "OBJECT_ID": "1993-036BWC", "EPOCH": "2025-12-19T23:22:48.331200", "MEAN_MOTION": 14.96721244, "ECCENTRICITY": 0.0119254, "INCLINATION": 73.9272, "RA_OF_ASC_NODE": 83.6344, "ARG_OF_PERICENTER": 324.0536, "MEAN_ANOMALY": 35.2666, "EPHEMERIS_TYPE": 0, "CLASSIFICATION_TYPE": "U", "NORAD_CAT_ID": 40799, "ELEMENT_SET_NO": 999, "REV_AT_EPOCH": 50085, "BSTAR": 0.00020522528, "MEAN_MOTION_DOT": 2.662e-05, "MEAN_MOTION_DDOT": 0}, "tle": {"line1": "1 40799U 93036BWC 25353.97417050  .00002662  00000+0  20523-3 0  9991", "line2": "2 40799  73.9272  83.6344 0119254 324.0536  35.2666 14.96721244500850"}}, "geometry": {"type": "Point", "coordinates": [-121.31270521730089, 52.46805880376213]}}, {"type": "Feature", "properties": {"norad_id": 40802, "name": "COSMOS 2251 DEB", "group": "cosmos-2251-debris", "lat": -58.19745422456445, "lon": 108.5348835398204, "alt_km": 624.427702317772, "timestamp": "2025-12-21T09:37:23.053324+00:00", "meta": {"OBJECT_NAME": "COSMOS 2251 DEB", "OBJECT_ID": "1993-036BWF", "EPOCH": "2025-12-20T16:01:50.950848", "MEAN_MOTION": 14.77686845, "ECCENTRICITY": 0.00629069, "INCLINATION": 74.0403, "RA_OF_ASC_NODE": 137.4571, "ARG_OF_PERICENTER": 234.6618, "MEAN_ANOMALY": 124.8667, "EPHEMERIS_TYPE": 0, "CLASSIFICATION_TYPE": "U", "NORAD_CAT_ID": 40802, "ELEMENT_SET_NO": 999, "REV_AT_EPOCH": 64526, "BSTAR": 0.0005156342, "MEAN_MOTION_DOT": 3.783e-05, "MEAN_MOTION_DDOT": 0}, "tle": {"line1": "1 40802U 93036BWF 25354.66795082  .00003783  00000+0  51563-3 0  9990", "line2": "2 40802  74.0403 137.4571 0062906 234.6618 124.8667 14.77686845645268"}}, "geometry": {"type": "Point", "coordinates": [108.5348835398204, -58.19745422456445]}}, {"type": "Feature", "properties": {"norad_id": 40803, "name": "COSMOS 2251 DEB", "group": "cosmos-2251-debris", "lat": 51.77896083616016, "lon": 56.91466129196427, "alt_km": 737.7600435873919, "timestamp": "2025-12-21T09:37:23.053334+00:00", "meta": {"OBJECT_NAME": "COSMOS 2251 DEB", "OBJECT_ID": "1993-036BWG", "EPOCH": "2025-12-18T13:33:58.856256", "MEAN_MOTION": 14.51832386, "ECCENTRICITY": 0.00340447, "INCLINATION": 74.0153, "RA_OF_ASC_NODE": 40.9148, "ARG_OF_PERICENTER": 256.5349, "MEAN_ANOMALY": 103.2017, "EPHEMERIS_TYPE": 0, "CLASSIFICATION_TYPE": "U", "NORAD_CAT_ID": 40803, "ELEMENT_SET_NO": 999, "REV_AT_EPOCH": 58837, "BSTAR": 0.00023751295, "MEAN_MOTION_DOT": 9.34e-06, "MEAN_MOTION_DDOT": 0}, "tle": {"line1": "1 40803U 93036BWG 25352.56526454  .00000934  00000+0  23751-3 0  9996", "line2": "2 40803  74.0153  40.9148 0034044 256.5349 103.2017 14.51832386588378"}}, "geometry": {"type": "Point", "coordinates": [56.91466129196427, 51.77896083616016]}}, {"type": "Feature", "properties": {"norad_id": 40808, "name": "COSMOS 2251 DEB", "group": "cosmos-2251-debris", "lat": 71.48166726128736, "lon": -109.92965876931719, "alt_km": 658.9055373251431, "timestamp": "2025-12-21T09:37:23.053344+00:00", "meta": {"OBJECT_NAME": "COSMOS 2251 DEB", "OBJECT_ID": "1993-036BWM", "EPOCH": "2025-12-21T03:26:49.540416", "MEAN_MOTION": 14.67611065, "ECCENTRICITY": 0.0008463, "INCLINATION": 74.0421, "RA_OF_ASC_NODE": 129.2468, "ARG_OF_PERICENTER": 164.8928, "MEAN_ANOMALY": 15.6527, "EPHEMERIS_TYPE": 0, "CLASSIFICATION_TYPE": "U", "NORAD_CAT_ID": 40808, "ELEMENT_SET_NO": 999, "REV_AT_EPOCH": 63742, "BSTAR": 0.0010662, "MEAN_MOTION_DOT": 6.035e-05, "MEAN_MOTION_DDOT": 0}, "tle": {"line1": "1 40808U 93036BWM 25355.14362894  .00006035  00000+0  10662-2 0  9998", "line2": "2 40808  74.0421 129.2468 0008463 164.8928  15.6527 14.67611065637426"}}, "geometry": {"type": "Point", "coordinates": [-109.92965876931719, 71.48166726128736]}}, {"type": "Feature", "properties": {"norad_id": 40810, "name": "COSMOS 2251 DEB", "group": "cosmos-2251-debris", "lat": 69.85862989511408, "lon": -173.05884655045793, "alt_km": 693.6532454499602, "timestamp": "2025-12-21T09:37:23.053354+00:00", "meta": {"OBJECT_NAME": "COSMOS 2251 DEB", "OBJECT_ID": "1993-036BWP", "EPOCH": "2025-12-20T21:37:57.745920", "MEAN_MOTION": 14.58766963, "ECCENTRICITY": 0.0018123, "INCLINATION": 74.0366, "RA_OF_ASC_NODE": 59.1939, "ARG_OF_PERICENTER": 210.007, "MEAN_ANOMALY": 150.0058, "EPHEMERIS_TYPE": 0, "CLASSIFICATION_TYPE": "U", "NORAD_CAT_ID": 40810, "ELEMENT_SET_NO": 999, "REV_AT_EPOCH": 61802, "BSTAR": 0.00043512, "MEAN_MOTION_DOT": 2.008e-05, "MEAN_MOTION_DDOT": 0}, "tle": {"line1": "1 40810U 93036BWP 25354.90136280  .00002008  00000+0  43512-3 0  9999", "line2": "2 40810  74.0366  59.1939 0018123 210.0070 150.0058 14.58766963618023"}}, "geometry": {"type": "Point", "coordinates": [-173.05884655045793, 69.85862989511408]}}, {"type": "Feature", "properties": {"norad_id": 46271, "name": "COSMOS 2251 DEB", "group": "cosmos-2251-debris", "lat": 61.46648076883869, "lon": -149.81544268495517, "alt_km": 703.7858737469542, "timestamp": "2025-12-21T09:37:23.053364+00:00", "meta": {"OBJECT_NAME": "COSMOS 2251 DEB", "OBJECT_ID": "1993-036BWT", "EPOCH": "2025-12-19T22:21:35.328960", "MEAN_MOTION": 14.51444335, "ECCENTRICITY": 0.003987, "INCLINATION": 74.0479, "RA_OF_ASC_NODE": 64.6869, "ARG_OF_PERICENTER": 184.8218, "MEAN_ANOMALY": 175.2565, "EPHEMERIS_TYPE": 0, "CLASSIFICATION_TYPE": "U", "NORAD_CAT_ID": 46271, "ELEMENT_SET_NO": 999, "REV_AT_EPOCH": 84746, "BSTAR": 0.00020357, "MEAN_MOTION_DOT": 7.93e-06, "MEAN_MOTION_DDOT": 0}, "tle": {"line1": "1 46271U 93036BWT 25353.93165890  .00000793  00000+0  20357-3 0  9998", "line2": "2 46271  74.0479  64.6869 0039870 184.8218 175.2565 14.51444335847465"}}, "geometry": {"type": "Point", "coordinates": [-149.81544268495517, 61.46648076883869]}}, {"type": "Feature", "properties": {"norad_id": 46430, "name": "COSMOS 2251 DEB", "group": "cosmos-2251-debris", "lat": 3.9673693004258372, "lon": 158.775847624612, "alt_km": 713.2814736511864, "timestamp": "2025-12-21T09:37:23.053374+00:00", "meta": {"OBJECT_NAME": "COSMOS 2251 DEB", "OBJECT_ID": "1993-036BWU", "EPOCH": "2025-12-19T07:10:40.968192", "MEAN_MOTION": 14.51392906, "ECCENTRICITY": 0.0103211, "INCLINATION": 73.9139, "RA_OF_ASC_NODE": 343.9071, "ARG_OF_PERICENTER": 263.0684, "MEAN_ANOMALY": 95.8727, "EPHEMERIS_TYPE": 0, "CLASSIFICATION_TYPE": "U", "NORAD_CAT_ID": 46430, "ELEMENT_SET_NO": 999, "REV_AT_EPOCH": 79778, "BSTAR": 0.0013871, "MEAN_MOTION_DOT": 5.902e-05, "MEAN_MOTION_DDOT": 0}, "tle": {"line1": "1 46430U 93036BWU 25353.29908528  .00005902  00000+0  13871-2 0  9996", "line2": "2 46430  73.9139 343.9071 0103211 263.0684  95.8727 14.51392906797781"}}, "geometry": {"type": "Point", "coordinates": [158.775847624612, 3.9673693004258372]}}, {"type": "Feature", "properties": {"norad_id": 46432, "name": "COSMOS 2251 DEB", "group": "cosmos-2251-debris", "lat": -23.938015024980675, "lon": 90.26766165092715, "alt_km": 1298.7895048678602, "timestamp": "2025-12-21T09:37:23.053384+00:00", "meta": {"OBJECT_NAME": "COSMOS 2251 DEB", "OBJECT_ID": "1993-036BWW", "EPOCH": "2025-12-21T01:41:30.908832", "MEAN_MOTION": 13.36653515, "ECCENTRICITY": 0.047429, "INCLINATION": 73.8731, "RA_OF_ASC_NODE": 98.1674, "ARG_OF_PERICENTER": 214.4315, "MEAN_ANOMALY": 326.3507, "EPHEMERIS_TYPE": 0, "CLASSIFICATION_TYPE": "U", "NORAD_CAT_ID": 46432, "ELEMENT_SET_NO": 999, "REV_AT_EPOCH": 67077, "BSTAR": 0.00079779, "MEAN_MOTION_DOT": 7.65e-06, "MEAN_MOTION_DDOT": 0}, "tle": {"line1": "1 46432U 93036BWW 25355.07049663  .00000765  00000+0  79779-3 0  9994", "line2": "2 46432  73.8731  98.1674 0474290 214.4315 326.3507 13.36653515670772"}}, "geometry": {"type": "Point", "coordinates": [90.26766165092715, -23.938015024980675]}}, {"type": "Feature", "properties": {"norad_id": 47045, "name": "COSMOS 2251 DEB", "group": "cosmos-2251-debris", "lat": -38.3390194769831, "lon": 120.15179892908613, "alt_km": 753.7351528287663, "timestamp": "2025-12-21T09:37:23.053395+00:00", "meta": {"OBJECT_NAME": "COSMOS 2251 DEB", "OBJECT_ID": "1993-036BWZ", "EPOCH": "2025-12-08T18:12:30.966336", "MEAN_MOTION": 14.3889696, "ECCENTRICITY": 0.00302024, "INCLINATION": 74.0568, "RA_OF_ASC_NODE": 156.4972, "ARG_OF_PERICENTER": 298.2595, "MEAN_ANOMALY": 80.2379, "EPHEMERIS_TYPE": 0, "CLASSIFICATION_TYPE": "U", "NORAD_CAT_ID": 47045, "ELEMENT_SET_NO": 999, "REV_AT_EPOCH": 7748, "BSTAR": 0.00016053941, "MEAN_MOTION_DOT": 4.71e-06, "MEAN_MOTION_DDOT": 0}, "tle": {"line1": "1 47045U 93036BWZ 25342.75869174  .00000471  00000+0  16054-3 0  9994", "line2": "2 47045  74.0568 156.4972 0030202 298.2595  80.2379 14.38896960 77482"}}, "geometry": {"type": "Point", "coordinates": [120.15179892908613, -38.3390194769831]}}, {"type": "Feature", "properties": {"norad_id": 47048, "name": "COSMOS 2251 DEB", "group": "cosmos-2251-debris", "lat": -52.45508149768382, "lon": -79.15733023235113, "alt_km": 818.3867389597399, "timestamp": "2025-12-21T09:37:23.053405+00:00", "meta": {"OBJECT_NAME": "COSMOS 2251 DEB", "OBJECT_ID": "1993-036BXC", "EPOCH": "2025-12-19T13:47:33.177120", "MEAN_MOTION": 14.52356803, "ECCENTRICITY": 0.0132576, "INCLINATION": 73.9784, "RA_OF_ASC_NODE": 306.2511, "ARG_OF_PERICENTER": 132.3729, "MEAN_ANOMALY": 347.2197, "EPHEMERIS_TYPE": 0, "CLASSIFICATION_TYPE": "U", "NORAD_CAT_ID": 47048, "ELEMENT_SET_NO": 999, "REV_AT_EPOCH": 59789, "BSTAR": 0.00066595, "MEAN_MOTION_DOT": 3.012e-05, "MEAN_MOTION_DDOT": 0}, "tle": {"line1": "1 47048U 93036BXC 25353.57468955  .00003012  00000+0  66595-3 0  9990", "line2": "2 47048  73.9784 306.2511 0132576 132.3729 347.2197 14.52356803597890"}}, "geometry": {"type": "Point", "coordinates": [-79.15733023235113, -52.45508149768382]}}]}